[{"OBJECT_NAME":"YAOGAN-39 01C","OBJECT_ID":"2023-130E","EPOCH":"2026-03-10T00:21:12.086208","MEAN_MOTION":15.17357748,"ECCENTRICITY":0.00019778,"INCLINATION":34.9938,"RA_OF_ASC_NODE":50.1324,"ARG_OF_PERICENTER":224.3051,"MEAN_ANOMALY":135.7503,"EPHEMERIS_TYPE":0,"CLASSIFICATION_TYPE":"U","NORAD_CAT_ID":57731,"ELEMENT_SET_NO":999,"REV_AT_EPOCH":14039,"BSTAR":0.00036987259,"MEAN_MOTION_DOT":7.529e-5,"MEAN_MOTION_DDOT":0},{"OBJECT_NAME":"LEGION 6","OBJECT_ID":"2025-025B","EPOCH":"2026-03-09T22:31:51.248640","MEAN_MOTION":15.16188393,"ECCENTRICITY":0.00128841,"INCLINATION":45.002,"RA_OF_ASC_NODE":22.5436,"ARG_OF_PERICENTER":290.9928,"MEAN_ANOMALY":68.9572,"EPHEMERIS_TYPE":0,"CLASSIFICATION_TYPE":"U","NORAD_CAT_ID":62901,"ELEMENT_SET_NO":999,"REV_AT_EPOCH":6057,"BSTAR":0.00036964993,"MEAN_MOTION_DOT":7.014e-5,"MEAN_MOTION_DDOT":0}]
